HORYU-4                 
1 41340U 16012D   26115.63763249  .00126282  00000+0  87383-3 0  9999
2 41340  30.9888  97.2055 0006179 238.5245 121.4806 15.72986907562481
RAVAN                   
1 41849U 16067B   26115.63263778  .00039788  00000+0  70919-3 0  9996
2 41849  97.9958 359.3278 0006062 166.7228 193.4182 15.49983289519548
CELTEE 1                
1 41850U 16067C   26115.58792499  .00005078  00000+0  24528-3 0  9999
2 41850  98.0749 338.5690 0002382  79.5585 280.5916 15.19148746517892
OPTICUBE 04             
1 41851U 16067D   26115.58023854  .00002081  00000+0  13432-3 0  9995
2 41851  98.0758 325.1108 0014425 298.1511  61.8259 15.09432689517237
AEROCUBE 8D             
1 41852U 16067E   26115.56384941  .00007539  00000+0  31785-3 0  9995
2 41852  98.0762 341.7426 0002629 343.0096  17.1051 15.23643901518053
AEROCUBE 8C             
1 41853U 16067F   26115.59712663  .00007215  00000+0  30221-3 0  9990
2 41853  98.0632 339.0750 0004080 232.7076 127.3787 15.23879037518056
CORVUS BC2              
1 42846U 17042X   26115.70903082  .00003198  00000+0  22347-3 0  9993
2 42846  97.4022 279.1278 0011433 294.5172  65.4863 15.05956706479161
CORVUS BC1              
1 42847U 17042Y   26115.70957630  .00002630  00000+0  18371-3 0  9994
2 42847  97.4056 279.9077 0010182 267.3105  92.6957 15.06127520479192
MAKERSAT 0              
1 43016U 17073D   26115.63071852  .00022036  00000+0  62656-3 0  9999
2 43016  97.4705 357.8114 0114178  99.6465 261.7695 15.29789926458425
SIRION PATHFINDER-2     
1 43759U 18099B   26115.71492634  .00004594  00000+0  25593-3 0  9994
2 43759  97.4303 166.0261 0010461 118.0429 242.1862 15.14050355404681
CORVUS BC4              
1 43767U 18099K   26115.65118014  .00004253  00000+0  25078-3 0  9993
2 43767  97.4124 160.1730 0008653 170.9764 189.1624 15.12056768404460
M2 PATHFINDER           
1 45727U 20037E   26114.97469742  .00001407  00000+0  10515-3 0  9995
2 45727  97.8168 305.6120 0010932 341.3383  18.7440 15.04437068317499
NETSAT-4                
1 46504U 20068U   26115.72424216  .00016872  00000+0  39615-3 0  9998
2 46504  97.8635 119.8222 0007155 134.9268 225.2559 15.42089611307686
NETSAT-3                
1 46505U 20068V   26115.75397573  .00018182  00000+0  44466-3 0  9993
2 46505  97.8676 118.1405 0006556 147.6067 212.5581 15.40845548307602
NETSAT-1                
1 46506U 20068W   26115.42817970  .00013769  00000+0  42965-3 0  9994
2 46506  97.8760 112.7230 0005160 169.1173 191.0181 15.33333389307211
NETSAT-2                
1 46507U 20068X   26115.56902878  .00021493  00000+0  47698-3 0  9993
2 46507  97.8646 119.3781 0004896 151.4253 208.7262 15.43738798307611
GREENCUBE (IO-117)      
1 53109U 22080E   26114.95664860 -.00000003  00000+0  00000+0 0  9990
2 53109  70.1460 316.7669 0008766 301.9104  58.0702  6.42583378 88645
