[{"OBJECT_NAME":"HORYU-4","OBJECT_ID":"2016-012D","EPOCH":"2026-04-25T15:18:11.447136","MEAN_MOTION":15.72986907,"ECCENTRICITY":0.0006179,"INCLINATION":30.9888,"RA_OF_ASC_NODE":97.2055,"ARG_OF_PERICENTER":238.5245,"MEAN_ANOMALY":121.4806,"EPHEMERIS_TYPE":0,"CLASSIFICATION_TYPE":"U","NORAD_CAT_ID":41340,"ELEMENT_SET_NO":999,"REV_AT_EPOCH":56248,"BSTAR":0.00087383,"MEAN_MOTION_DOT":0.00126282,"MEAN_MOTION_DDOT":0},{"OBJECT_NAME":"RAVAN","OBJECT_ID":"2016-067B","EPOCH":"2026-04-25T15:10:59.904192","MEAN_MOTION":15.49983289,"ECCENTRICITY":0.0006062,"INCLINATION":97.9958,"RA_OF_ASC_NODE":359.3278,"ARG_OF_PERICENTER":166.7228,"MEAN_ANOMALY":193.4182,"EPHEMERIS_TYPE":0,"CLASSIFICATION_TYPE":"U","NORAD_CAT_ID":41849,"ELEMENT_SET_NO":999,"REV_AT_EPOCH":51954,"BSTAR":0.00070919,"MEAN_MOTION_DOT":0.00039788,"MEAN_MOTION_DDOT":0},{"OBJECT_NAME":"CELTEE 1","OBJECT_ID":"2016-067C","EPOCH":"2026-04-25T14:06:36.719136","MEAN_MOTION":15.19148746,"ECCENTRICITY":0.0002382,"INCLINATION":98.0749,"RA_OF_ASC_NODE":338.569,"ARG_OF_PERICENTER":79.5585,"MEAN_ANOMALY":280.5916,"EPHEMERIS_TYPE":0,"CLASSIFICATION_TYPE":"U","NORAD_CAT_ID":41850,"ELEMENT_SET_NO":999,"REV_AT_EPOCH":51789,"BSTAR":0.00024528,"MEAN_MOTION_DOT":5.078e-5,"MEAN_MOTION_DDOT":0},{"OBJECT_NAME":"OPTICUBE 04","OBJECT_ID":"2016-067D","EPOCH":"2026-04-25T13:55:32.609856","MEAN_MOTION":15.09432689,"ECCENTRICITY":0.0014425,"INCLINATION":98.0758,"RA_OF_ASC_NODE":325.1108,"ARG_OF_PERICENTER":298.1511,"MEAN_ANOMALY":61.8259,"EPHEMERIS_TYPE":0,"CLASSIFICATION_TYPE":"U","NORAD_CAT_ID":41851,"ELEMENT_SET_NO":999,"REV_AT_EPOCH":51723,"BSTAR":0.00013432,"MEAN_MOTION_DOT":2.081e-5,"MEAN_MOTION_DDOT":0},{"OBJECT_NAME":"AEROCUBE 8D","OBJECT_ID":"2016-067E","EPOCH":"2026-04-25T13:31:56.589024","MEAN_MOTION":15.23643901,"ECCENTRICITY":0.0002629,"INCLINATION":98.0762,"RA_OF_ASC_NODE":341.7426,"ARG_OF_PERICENTER":343.0096,"MEAN_ANOMALY":17.1051,"EPHEMERIS_TYPE":0,"CLASSIFICATION_TYPE":"U","NORAD_CAT_ID":41852,"ELEMENT_SET_NO":999,"REV_AT_EPOCH":51805,"BSTAR":0.00031785,"MEAN_MOTION_DOT":7.539e-5,"MEAN_MOTION_DDOT":0},{"OBJECT_NAME":"AEROCUBE 8C","OBJECT_ID":"2016-067F","EPOCH":"2026-04-25T14:19:51.740832","MEAN_MOTION":15.23879037,"ECCENTRICITY":0.000408,"INCLINATION":98.0632,"RA_OF_ASC_NODE":339.075,"ARG_OF_PERICENTER":232.7076,"MEAN_ANOMALY":127.3787,"EPHEMERIS_TYPE":0,"CLASSIFICATION_TYPE":"U","NORAD_CAT_ID":41853,"ELEMENT_SET_NO":999,"REV_AT_EPOCH":51805,"BSTAR":0.00030221,"MEAN_MOTION_DOT":7.215e-5,"MEAN_MOTION_DDOT":0},{"OBJECT_NAME":"CORVUS BC2","OBJECT_ID":"2017-042X","EPOCH":"2026-04-25T17:01:00.262848","MEAN_MOTION":15.05956706,"ECCENTRICITY":0.0011433,"INCLINATION":97.4022,"RA_OF_ASC_NODE":279.1278,"ARG_OF_PERICENTER":294.5172,"MEAN_ANOMALY":65.4863,"EPHEMERIS_TYPE":0,"CLASSIFICATION_TYPE":"U","NORAD_CAT_ID":42846,"ELEMENT_SET_NO":999,"REV_AT_EPOCH":47916,"BSTAR":0.00022347,"MEAN_MOTION_DOT":3.198e-5,"MEAN_MOTION_DDOT":0},{"OBJECT_NAME":"CORVUS BC1","OBJECT_ID":"2017-042Y","EPOCH":"2026-04-25T17:01:47.392320","MEAN_MOTION":15.0612752,"ECCENTRICITY":0.0010182,"INCLINATION":97.4056,"RA_OF_ASC_NODE":279.9077,"ARG_OF_PERICENTER":267.3105,"MEAN_ANOMALY":92.6957,"EPHEMERIS_TYPE":0,"CLASSIFICATION_TYPE":"U","NORAD_CAT_ID":42847,"ELEMENT_SET_NO":999,"REV_AT_EPOCH":47919,"BSTAR":0.00018371,"MEAN_MOTION_DOT":2.63e-5,"MEAN_MOTION_DDOT":0},{"OBJECT_NAME":"MAKERSAT 0","OBJECT_ID":"2017-073D","EPOCH":"2026-04-25T15:08:14.080128","MEAN_MOTION":15.29789926,"ECCENTRICITY":0.0114178,"INCLINATION":97.4705,"RA_OF_ASC_NODE":357.8114,"ARG_OF_PERICENTER":99.6465,"MEAN_ANOMALY":261.7695,"EPHEMERIS_TYPE":0,"CLASSIFICATION_TYPE":"U","NORAD_CAT_ID":43016,"ELEMENT_SET_NO":999,"REV_AT_EPOCH":45842,"BSTAR":0.00062656,"MEAN_MOTION_DOT":0.00022036,"MEAN_MOTION_DDOT":0},{"OBJECT_NAME":"SIRION PATHFINDER-2","OBJECT_ID":"2018-099B","EPOCH":"2026-04-25T17:09:29.635776","MEAN_MOTION":15.14050355,"ECCENTRICITY":0.0010461,"INCLINATION":97.4303,"RA_OF_ASC_NODE":166.0261,"ARG_OF_PERICENTER":118.0429,"MEAN_ANOMALY":242.1862,"EPHEMERIS_TYPE":0,"CLASSIFICATION_TYPE":"U","NORAD_CAT_ID":43759,"ELEMENT_SET_NO":999,"REV_AT_EPOCH":40468,"BSTAR":0.00025593,"MEAN_MOTION_DOT":4.594e-5,"MEAN_MOTION_DDOT":0},{"OBJECT_NAME":"CORVUS BC4","OBJECT_ID":"2018-099K","EPOCH":"2026-04-25T15:37:41.964096","MEAN_MOTION":15.12056768,"ECCENTRICITY":0.0008653,"INCLINATION":97.4124,"RA_OF_ASC_NODE":160.173,"ARG_OF_PERICENTER":170.9764,"MEAN_ANOMALY":189.1624,"EPHEMERIS_TYPE":0,"CLASSIFICATION_TYPE":"U","NORAD_CAT_ID":43767,"ELEMENT_SET_NO":999,"REV_AT_EPOCH":40446,"BSTAR":0.00025078,"MEAN_MOTION_DOT":4.253e-5,"MEAN_MOTION_DDOT":0},{"OBJECT_NAME":"M2 PATHFINDER","OBJECT_ID":"2020-037E","EPOCH":"2026-04-24T23:23:33.857088","MEAN_MOTION":15.04437068,"ECCENTRICITY":0.00109325,"INCLINATION":97.8168,"RA_OF_ASC_NODE":305.612,"ARG_OF_PERICENTER":341.3383,"MEAN_ANOMALY":18.744,"EPHEMERIS_TYPE":0,"CLASSIFICATION_TYPE":"U","NORAD_CAT_ID":45727,"ELEMENT_SET_NO":999,"REV_AT_EPOCH":31749,"BSTAR":0.00010514832,"MEAN_MOTION_DOT":1.407e-5,"MEAN_MOTION_DDOT":0},{"OBJECT_NAME":"NETSAT-4","OBJECT_ID":"2020-068U","EPOCH":"2026-04-25T17:22:54.522624","MEAN_MOTION":15.42089611,"ECCENTRICITY":0.0007155,"INCLINATION":97.8635,"RA_OF_ASC_NODE":119.8222,"ARG_OF_PERICENTER":134.9268,"MEAN_ANOMALY":225.2559,"EPHEMERIS_TYPE":0,"CLASSIFICATION_TYPE":"U","NORAD_CAT_ID":46504,"ELEMENT_SET_NO":999,"REV_AT_EPOCH":30768,"BSTAR":0.00039615,"MEAN_MOTION_DOT":0.00016872,"MEAN_MOTION_DDOT":0},{"OBJECT_NAME":"NETSAT-3","OBJECT_ID":"2020-068V","EPOCH":"2026-04-25T18:05:43.503072","MEAN_MOTION":15.40845548,"ECCENTRICITY":0.0006556,"INCLINATION":97.8676,"RA_OF_ASC_NODE":118.1405,"ARG_OF_PERICENTER":147.6067,"MEAN_ANOMALY":212.5581,"EPHEMERIS_TYPE":0,"CLASSIFICATION_TYPE":"U","NORAD_CAT_ID":46505,"ELEMENT_SET_NO":999,"REV_AT_EPOCH":30760,"BSTAR":0.00044466,"MEAN_MOTION_DOT":0.00018182,"MEAN_MOTION_DDOT":0},{"OBJECT_NAME":"NETSAT-1","OBJECT_ID":"2020-068W","EPOCH":"2026-04-25T10:16:34.726080","MEAN_MOTION":15.33333389,"ECCENTRICITY":0.000516,"INCLINATION":97.876,"RA_OF_ASC_NODE":112.723,"ARG_OF_PERICENTER":169.1173,"MEAN_ANOMALY":191.0181,"EPHEMERIS_TYPE":0,"CLASSIFICATION_TYPE":"U","NORAD_CAT_ID":46506,"ELEMENT_SET_NO":999,"REV_AT_EPOCH":30721,"BSTAR":0.00042965,"MEAN_MOTION_DOT":0.00013769,"MEAN_MOTION_DDOT":0},{"OBJECT_NAME":"NETSAT-2","OBJECT_ID":"2020-068X","EPOCH":"2026-04-25T13:39:24.086592","MEAN_MOTION":15.43738798,"ECCENTRICITY":0.0004896,"INCLINATION":97.8646,"RA_OF_ASC_NODE":119.3781,"ARG_OF_PERICENTER":151.4253,"MEAN_ANOMALY":208.7262,"EPHEMERIS_TYPE":0,"CLASSIFICATION_TYPE":"U","NORAD_CAT_ID":46507,"ELEMENT_SET_NO":999,"REV_AT_EPOCH":30761,"BSTAR":0.00047698,"MEAN_MOTION_DOT":0.00021493,"MEAN_MOTION_DDOT":0},{"OBJECT_NAME":"GREENCUBE (IO-117)","OBJECT_ID":"2022-080E","EPOCH":"2026-04-24T22:57:34.439040","MEAN_MOTION":6.42583378,"ECCENTRICITY":0.00087667,"INCLINATION":70.146,"RA_OF_ASC_NODE":316.7669,"ARG_OF_PERICENTER":301.9104,"MEAN_ANOMALY":58.0702,"EPHEMERIS_TYPE":0,"CLASSIFICATION_TYPE":"U","NORAD_CAT_ID":53109,"ELEMENT_SET_NO":999,"REV_AT_EPOCH":8864,"BSTAR":0,"MEAN_MOTION_DOT":-3.0e-8,"MEAN_MOTION_DDOT":0}]
